     3.00           N                   E                   RINEX VERSION / TYPE
BRD_USR             ESA                 20190106 221715  UTCPGM / RUN BY / DATE
 GAL   4.9750E+01  3.9062E-03 -3.2654E-03  0.0000E+00       IONOSPHERIC CORR
GAUT  0.0000000000E+00 0.000000000E+00      0 2035 GSTB   0 TIME SYSTEM CORR
GPGA -2.1245796233E-09 4.440892099E-15  86400 2035 GSTB   0 TIME SYSTEM CORR
                                                            END OF HEADER
E04 2019 01 06 20 20 00-1.946407137439E-04-7.830180948076E-12 0.000000000000E+00
     1.220000000000E+02 2.715625000000E+01 3.619436478343E-09-8.138607575273E-01
     1.080334186554E-06 8.146697655320E-05 5.904585123062E-06 5.440606382370E+03
     7.320000000000E+04 4.097819328308E-08 1.244217884360E+00-3.725290298462E-09
     9.522620271357E-01 2.095000000000E+02 2.004318964044E+00-5.660950087008E-09
     5.903817346261E-10 2.580000000000E+02 2.035000000000E+03 0.000000000000E+00
     3.120000000000E+00 0.000000000000E+00-7.916241884232E-09 0.000000000000E+00
     7.425000000000E+04 0.000000000000E+00 0.000000000000E+00 0.000000000000E+00
E13 2019 01 06 20 10 00 3.814100055024E-04 4.689582056017E-13 0.000000000000E+00
     1.210000000000E+02-1.622500000000E+02 2.866547974658E-09 8.969957748116E-01
    -7.631257176399E-06 3.336159279570E-04 2.004206180573E-06 5.440599025726E+03
     7.260000000000E+04-2.048909664154E-08-8.663028889240E-01-9.313225746155E-09
     9.851918025416E-01 3.092500000000E+02-1.610287886657E+00-5.724881321429E-09
    -3.628722579432E-10 5.210000000000E+02 2.035000000000E+03 0.000000000000E+00
     3.120000000000E+00 4.550000000000E+02-4.656612873077E-09-5.587935447693E-09
     7.442500000000E+04 0.000000000000E+00 0.000000000000E+00 0.000000000000E+00
E13 2019 01 06 20 10 00 3.814105875790E-04 4.547473508865E-13 0.000000000000E+00
     1.210000000000E+02-1.622500000000E+02 2.866547974658E-09 8.969957748116E-01
    -7.631257176399E-06 3.336159279570E-04 2.004206180573E-06 5.440599025726E+03
     7.260000000000E+04-2.048909664154E-08-8.663028889240E-01-9.313225746155E-09
     9.851918025416E-01 3.092500000000E+02-1.610287886657E+00-5.724881321429E-09
    -3.628722579432E-10 2.580000000000E+02 2.035000000000E+03 0.000000000000E+00
     3.120000000000E+00 5.600000000000E+01-4.656612873077E-09 0.000000000000E+00
     7.445000000000E+04 0.000000000000E+00 0.000000000000E+00 0.000000000000E+00
E01 2019 01 06 20 30 00-5.152072990313E-04-8.157030606526E-12 0.000000000000E+00
     1.230000000000E+02 1.530000000000E+02 2.306881805173E-09 7.956659874821E-01
     7.020309567451E-06 1.161970430985E-04 1.210719347000E-05 5.440629175186E+03
     7.380000000000E+04-1.676380634308E-08-2.946625287982E+00-2.048909664154E-08
     9.903434041894E-01 9.303125000000E+01-8.385821405521E-01-5.011280168505E-09
    -2.814402945465E-10 5.210000000000E+02 2.035000000000E+03 0.000000000000E+00
     3.120000000000E+00 0.000000000000E+00-4.656612873077E-09-5.355104804039E-09
     7.448500000000E+04 0.000000000000E+00 0.000000000000E+00 0.000000000000E+00
E02 2019 01 06 20 30 00 4.224595613778E-05 1.634248292248E-12 0.000000000000E+00
     1.230000000000E+02 1.269062500000E+02 2.361169780770E-09-2.909889555643E+00
     5.858018994331E-06 2.661260077730E-04 1.204386353493E-05 5.440627893448E+03
     7.380000000000E+04-2.793967723846E-08-2.946657846687E+00 0.000000000000E+00
     9.903514838859E-01 9.468750000000E+01-2.763366407703E-01-5.053424781140E-09
    -2.296524230881E-10 5.210000000000E+02 2.035000000000E+03 0.000000000000E+00
     3.120000000000E+00 0.000000000000E+00-5.820766091347E-09-7.217749953270E-09
     7.448500000000E+04 0.000000000000E+00 0.000000000000E+00 0.000000000000E+00
E04 2019 01 06 20 30 00-1.946460106410E-04-7.844391802792E-12 0.000000000000E+00
     1.230000000000E+02 2.712500000000E+01 3.612650481393E-09-7.394056940265E-01
     1.080334186554E-06 8.148141205311E-05 5.882233381271E-06 5.440606410980E+03
     7.380000000000E+04 4.097819328308E-08 1.244214472836E+00 0.000000000000E+00
     9.522623738473E-01 2.093437500000E+02 2.004249880664E+00-5.660950087008E-09
     5.928818387655E-10 5.210000000000E+02 2.035000000000E+03 0.000000000000E+00
     3.120000000000E+00 0.000000000000E+00-7.916241884232E-09-8.847564458847E-09
     7.448500000000E+04 0.000000000000E+00 0.000000000000E+00 0.000000000000E+00
E05 2019 01 06 20 30 00 1.295487745665E-04-6.522782314278E-12 0.000000000000E+00
     1.230000000000E+02 2.928125000000E+01 3.577649023442E-09-1.875382429160E+00
     1.445412635803E-06 1.432140124962E-04 5.817040801048E-06 5.440609174728E+03
     7.380000000000E+04-1.862645149231E-09 1.244146902112E+00-5.029141902924E-08
     9.522322801595E-01 2.117812500000E+02 1.567016708239E+00-5.660592929274E-09
     5.914532078287E-10 5.210000000000E+02 2.035000000000E+03 0.000000000000E+00
     3.120000000000E+00 0.000000000000E+00-1.396983861923E-09-1.629814505577E-09
     7.448500000000E+04 0.000000000000E+00 0.000000000000E+00 0.000000000000E+00
E08 2019 01 06 20 30 00 6.428559368942E-03-7.432277016051E-12 0.000000000000E+00
     1.230000000000E+02 3.940625000000E+01 3.559791136732E-09-2.369215957663E+00
     1.657754182816E-06 2.257126616314E-04 5.695968866348E-06 5.440608823776E+03
     7.380000000000E+04 9.313225746155E-09 1.235526604665E+00 1.117587089539E-08
     9.582051362215E-01 2.158437500000E+02 4.896042294100E-01-5.689165548009E-09
     5.689522705744E-10 5.210000000000E+02 2.035000000000E+03 0.000000000000E+00
     3.120000000000E+00 0.000000000000E+00-8.381903171539E-09-9.778887033463E-09
     7.448500000000E+04 0.000000000000E+00 0.000000000000E+00 0.000000000000E+00
E09 2019 01 06 20 30 00 6.566026306245E-03-1.129762949859E-11 0.000000000000E+00
     1.230000000000E+02 2.490625000000E+01 3.534432937604E-09 3.508902478958E-01
     1.158565282822E-06 2.455358626321E-04 6.128102540970E-06 5.440607769012E+03
     7.380000000000E+04 2.421438694000E-08 1.235523526686E+00-2.048909664154E-08
     9.582359525908E-01 2.105937500000E+02 1.244313499223E-01-5.589875697903E-09
     5.821671067396E-10 5.210000000000E+02 2.035000000000E+03 0.000000000000E+00
     3.120000000000E+00 0.000000000000E+00-3.259629011154E-09-3.958120942116E-09
     7.448500000000E+04 0.000000000000E+00 0.000000000000E+00 0.000000000000E+00
E14 2019 01 06 20 30 00 6.463765632361E-03-5.641709321935E-12 0.000000000000E+00
     1.230000000000E+02-1.397500000000E+02 4.273035131922E-09-2.592108019978E+00
    -3.641471266747E-06 1.663789049489E-01-9.564682841301E-06 5.289410039902E+03
     7.380000000000E+04 3.118067979813E-06-1.461673756259E+00 5.252659320831E-07
     8.825523041545E-01 4.862500000000E+02 1.453494781698E+00-6.617061341451E-09
     7.178870457341E-11 5.210000000000E+02 2.035000000000E+03 0.000000000000E+00
     3.120000000000E+00 4.550000000000E+02 3.329478204250E-08 3.748573362827E-08
     7.448500000000E+04 0.000000000000E+00 0.000000000000E+00 0.000000000000E+00
E19 2019 01 06 20 30 00-9.326147846878E-06 3.552713678801E-13 0.000000000000E+00
     1.230000000000E+02 2.981250000000E+01 3.519789470502E-09-1.674673584077E-01
     1.391395926476E-06 1.392576377839E-04 5.748122930527E-06 5.440604320526E+03
     7.380000000000E+04 3.166496753693E-08 1.240880852651E+00 2.048909664154E-08
     9.579915516448E-01 2.129375000000E+02 2.292952193451E+00-5.608805057815E-09
     5.896674191577E-10 5.210000000000E+02 2.035000000000E+03 0.000000000000E+00
     3.120000000000E+00 0.000000000000E+00-8.614733815193E-09-9.080395102501E-09
     7.448500000000E+04 0.000000000000E+00 0.000000000000E+00 0.000000000000E+00
E21 2019 01 06 20 30 00-5.131382495165E-04-1.918465386552E-12 0.000000000000E+00
     1.230000000000E+02 1.472187500000E+02 2.388670926303E-09 1.103956591949E+00
     6.934627890587E-06 5.011679604650E-05 1.165084540844E-05 5.440636629105E+03
     7.380000000000E+04 2.607703208923E-08-2.949231537983E+00-5.960464477539E-08
     9.899065724621E-01 1.011875000000E+02-3.451876147468E-01-5.067353932774E-09
    -2.767972440020E-10 5.210000000000E+02 2.035000000000E+03 0.000000000000E+00
     3.120000000000E+00 0.000000000000E+00-2.793967723846E-09-3.259629011154E-09
     7.448500000000E+04 0.000000000000E+00 0.000000000000E+00 0.000000000000E+00
E25 2019 01 06 20 30 00 1.931633567438E-03-1.129762949859E-11 0.000000000000E+00
     1.230000000000E+02 1.179687500000E+02 2.417957860507E-09-1.006590597247E+00
     5.546957254410E-06 2.172759268433E-04 1.218542456627E-05 5.440633666992E+03
     7.380000000000E+04-7.450580596924E-09-2.949240254049E+00-2.048909664154E-08
     9.899123363594E-01 8.990625000000E+01-1.374682868739E+00-5.083783188547E-09
    -2.585821995580E-10 5.210000000000E+02 2.035000000000E+03 0.000000000000E+00
     3.120000000000E+00 0.000000000000E+00-1.164153218269E-09-1.396983861923E-09
     7.448500000000E+04 0.000000000000E+00 0.000000000000E+00 0.000000000000E+00
E26 2019 01 06 20 30 00 5.049508414231E-03-4.342837200966E-11 0.000000000000E+00
     1.230000000000E+02-1.741562500000E+02 2.887977438710E-09 7.586150679797E-01
    -8.031725883484E-06 3.263322869316E-04 1.914799213409E-06 5.440609718323E+03
     7.380000000000E+04-3.352761268616E-08-8.573748461781E-01-9.313225746155E-09
     9.783099140548E-01 3.097187500000E+02-2.104913142036E+00-5.765954460862E-09
    -3.960879272235E-10 5.210000000000E+02 2.035000000000E+03 0.000000000000E+00
     3.120000000000E+00 0.000000000000E+00 1.164153218269E-09 1.164153218269E-09
     7.448500000000E+04 0.000000000000E+00 0.000000000000E+00 0.000000000000E+00
